STARLINK-31282          
1 59307U 24056M   26068.50137457  .00000695  00000+0  34778-4 0  9997
2 59307  43.0042 231.9332 0001307 267.9054  92.1648 15.27572077111125
FLOCK 4G-27             
1 62641U 25009AJ  26068.75406453  .00012587  00000+0  47455-3 0  9991
2 62641  97.3976 150.8631 0000756 322.4974  37.6212 15.27199247 63710
